{
    "links": {
        "self": "http://www.neowsapp.com/rest/v1/neo/3660309?api_key=iIulBulltgU6a56xZRHN4H3l9WmuAYTsLGpBGhQ2"
    },
    "id": "3660309",
    "neo_reference_id": "3660309",
    "name": "(2014 BS57)",
    "designation": "2014 BS57",
    "nasa_jpl_url": "http://ssd.jpl.nasa.gov/sbdb.cgi?sstr=3660309",
    "absolute_magnitude_h": 25.4,
    "estimated_diameter": {
        "kilometers": {
            "estimated_diameter_min": 0.022108281,
            "estimated_diameter_max": 0.0494356193
        },
        "meters": {
            "estimated_diameter_min": 22.1082810359,
            "estimated_diameter_max": 49.435619262
        },
        "miles": {
            "estimated_diameter_min": 0.0137374447,
            "estimated_diameter_max": 0.0307178602
        },
        "feet": {
            "estimated_diameter_min": 72.5337327539,
            "estimated_diameter_max": 162.1903570994
        }
    },
    "is_potentially_hazardous_asteroid": false,
    "close_approach_data": [
        {
            "close_approach_date": "1959-02-05",
            "close_approach_date_full": "1959-Feb-05 08:55",
            "epoch_date_close_approach": -344099100000,
            "relative_velocity": {
                "kilometers_per_second": "10.8563241646",
                "kilometers_per_hour": "39082.7669923814",
                "miles_per_hour": "24284.5115236828"
            },
            "miss_distance": {
                "astronomical": "0.4075822481",
                "lunar": "158.5494945109",
                "kilometers": "60973436.165571547",
                "miles": "37887136.3834274686"
            },
            "orbiting_body": "Earth"
        },
        {
            "close_approach_date": "1959-03-23",
            "close_approach_date_full": "1959-Mar-23 13:19",
            "epoch_date_close_approach": -340108860000,
            "relative_velocity": {
                "kilometers_per_second": "13.6616396616",
                "kilometers_per_hour": "49181.9027817427",
                "miles_per_hour": "30559.7217590223"
            },
            "miss_distance": {
                "astronomical": "0.3948875911",
                "lunar": "153.6112729379",
                "kilometers": "59074342.517990957",
                "miles": "36707094.3100989266"
            },
            "orbiting_body": "Earth"
        },
        {
            "close_approach_date": "2014-02-04",
            "close_approach_date_full": "2014-Feb-04 13:42",
            "epoch_date_close_approach": 1391521320000,
            "relative_velocity": {
                "kilometers_per_second": "18.3596772592",
                "kilometers_per_hour": "66094.8381330512",
                "miles_per_hour": "41068.7620610618"
            },
            "miss_distance": {
                "astronomical": "0.0537116296",
                "lunar": "20.8938239144",
                "kilometers": "8035145.382388952",
                "miles": "4992807.8210414576"
            },
            "orbiting_body": "Earth"
        },
        {
            "close_approach_date": "2066-02-10",
            "close_approach_date_full": "2066-Feb-10 12:13",
            "epoch_date_close_approach": 3033029580000,
            "relative_velocity": {
                "kilometers_per_second": "10.8386233931",
                "kilometers_per_hour": "39019.0442151877",
                "miles_per_hour": "24244.9166680426"
            },
            "miss_distance": {
                "astronomical": "0.3573629796",
                "lunar": "139.0141990644",
                "kilometers": "53460740.565013452",
                "miles": "33218963.8032795576"
            },
            "orbiting_body": "Earth"
        },
        {
            "close_approach_date": "2066-03-08",
            "close_approach_date_full": "2066-Mar-08 23:37",
            "epoch_date_close_approach": 3035317020000,
            "relative_velocity": {
                "kilometers_per_second": "10.856722654",
                "kilometers_per_hour": "39084.2015543564",
                "miles_per_hour": "24285.4029047055"
            },
            "miss_distance": {
                "astronomical": "0.3601443747",
                "lunar": "140.0961617583",
                "kilometers": "53876831.347601889",
                "miles": "33477510.6266045082"
            },
            "orbiting_body": "Earth"
        }
    ],
    "orbital_data": {
        "orbit_id": "5",
        "orbit_determination_date": "2017-04-06 08:42:38",
        "first_observation_date": "2014-01-29",
        "last_observation_date": "2014-02-02",
        "data_arc_in_days": 4,
        "observations_used": 18,
        "orbit_uncertainty": "8",
        "minimum_orbit_intersection": ".0350844",
        "jupiter_tisserand_invariant": "4.860",
        "epoch_osculation": "2456687.5",
        "eccentricity": ".5773797187355031",
        "semi_major_axis": "1.278424256208602",
        "inclination": "12.71428019029143",
        "ascending_node_longitude": "125.1710062283474",
        "orbital_period": "527.9720473268",
        "perihelion_distance": ".5402880187342348",
        "perihelion_argument": "113.3109938590631",
        "aphelion_distance": "2.01656049368297",
        "perihelion_time": "2456747.959173697603",
        "mean_anomaly": "318.7756536707994",
        "mean_motion": ".6818542796398651",
        "equinox": "J2000",
        "orbit_class": {
            "orbit_class_type": "APO",
            "orbit_class_description": "Near-Earth asteroid orbits which cross the Earth’s orbit similar to that of 1862 Apollo",
            "orbit_class_range": "a (semi-major axis) > 1.0 AU; q (perihelion) < 1.017 AU"
        }
    },
    "is_sentry_object": false
}